{
  "type": "FeatureCollection",
  "features": [
    {
      "type": "Feature",
      "properties": {
        "norad_id": 66718,
        "name": "FLOCK 4H-15",
        "group": "last-30-days",
        "lat": 75.94295667292562,
        "lon": -77.70155535693362,
        "alt_km": 509.2657743514919,
        "timestamp": "2025-12-25T07:00:32.763325+00:00",
        "meta_object_name": "FLOCK 4H-15",
        "meta_object_id": "2025-276BE",
        "meta_epoch": "2025-12-24T19:28:50.143008",
        "meta_mean_motion": 15.17123681,
        "meta_eccentricity": 0.00030925,
        "meta_inclination": 97.4419,
        "meta_ra_of_asc_node": 70.3574,
        "meta_arg_of_pericenter": 257.7586,
        "meta_mean_anomaly": 102.3301,
        "meta_ephemeris_type": 0,
        "meta_classification_type": "U",
        "meta_norad_cat_id": 66718,
        "meta_element_set_no": 999,
        "meta_rev_at_epoch": 395,
        "meta_bstar": 0.00031787625,
        "meta_mean_motion_dot": 6.238e-05,
        "meta_mean_motion_ddot": 0,
        "tle_line1": "1 66718U 25276BE  25358.81169147  .00006238  00000+0  31788-3 0  9998",
        "tle_line2": "2 66718  97.4419  70.3574 0003092 257.7586 102.3301 15.17123681  3956"
      },
      "geometry": {
        "type": "Point",
        "coordinates": [
          -77.70155535693362,
          75.94295667292562
        ]
      }
    },
    {
      "type": "Feature",
      "properties": {
        "norad_id": 66719,
        "name": "FLOCK 4H-16",
        "group": "last-30-days",
        "lat": 67.8537359325385,
        "lon": -90.42450034896412,
        "alt_km": 508.174641738814,
        "timestamp": "2025-12-25T07:00:32.763346+00:00",
        "meta_object_name": "FLOCK 4H-16",
        "meta_object_id": "2025-276BF",
        "meta_epoch": "2025-12-24T03:36:32.783616",
        "meta_mean_motion": 15.17223362,
        "meta_eccentricity": 0.00071256,
        "meta_inclination": 97.4433,
        "meta_ra_of_asc_node": 69.7176,
        "meta_arg_of_pericenter": 194.987,
        "meta_mean_anomaly": 165.1154,
        "meta_ephemeris_type": 0,
        "meta_classification_type": "U",
        "meta_norad_cat_id": 66719,
        "meta_element_set_no": 999,
        "meta_rev_at_epoch": 385,
        "meta_bstar": -0.010371176,
        "meta_mean_motion_dot": -0.00200754,
        "meta_mean_motion_ddot": 0,
        "tle_line1": "1 66719U 25276BF  25358.15037944 -.00200754  00000+0 -10371-1 0  9999",
        "tle_line2": "2 66719  97.4433  69.7176 0007125 194.9870 165.1154 15.17223362  3851"
      },
      "geometry": {
        "type": "Point",
        "coordinates": [
          -90.42450034896412,
          67.8537359325385
        ]
      }
    },
    {
      "type": "Feature",
      "properties": {
        "norad_id": 66720,
        "name": "FLOCK 4H-17",
        "group": "last-30-days",
        "lat": -9.825484523268877,
        "lon": -110.42187339002031,
        "alt_km": 514.258368198477,
        "timestamp": "2025-12-25T07:00:32.763361+00:00",
        "meta_object_name": "FLOCK 4H-17",
        "meta_object_id": "2025-276BG",
        "meta_epoch": "2025-12-24T08:00:03.000384",
        "meta_mean_motion": 15.18107936,
        "meta_eccentricity": 0.00027451,
        "meta_inclination": 97.4437,
        "meta_ra_of_asc_node": 69.9326,
        "meta_arg_of_pericenter": 183.4874,
        "meta_mean_anomaly": 170.4379,
        "meta_ephemeris_type": 0,
        "meta_classification_type": "U",
        "meta_norad_cat_id": 66720,
        "meta_element_set_no": 999,
        "meta_rev_at_epoch": 130,
        "meta_bstar": -0.0023881973,
        "meta_mean_motion_dot": -0.00048418,
        "meta_mean_motion_ddot": 0,
        "tle_line1": "1 66720U 25276BG  25358.33336806 -.00048418  00000+0 -23882-2 0  9999",
        "tle_line2": "2 66720  97.4437  69.9326 0002745 183.4874 170.4379 15.18107936  1301"
      },
      "geometry": {
        "type": "Point",
        "coordinates": [
          -110.42187339002031,
          -9.825484523268877
        ]
      }
    },
    {
      "type": "Feature",
      "properties": {
        "norad_id": 66721,
        "name": "FLOCK 4H-18",
        "group": "last-30-days",
        "lat": 73.0727444549275,
        "lon": -83.76549591045284,
        "alt_km": 509.07807099026195,
        "timestamp": "2025-12-25T07:00:32.763372+00:00",
        "meta_object_name": "FLOCK 4H-18",
        "meta_object_id": "2025-276BH",
        "meta_epoch": "2025-12-24T19:27:59.389056",
        "meta_mean_motion": 15.17159719,
        "meta_eccentricity": 0.00024793,
        "meta_inclination": 97.4378,
        "meta_ra_of_asc_node": 70.3425,
        "meta_arg_of_pericenter": 273.0043,
        "meta_mean_anomaly": 87.0907,
        "meta_ephemeris_type": 0,
        "meta_classification_type": "U",
        "meta_norad_cat_id": 66721,
        "meta_element_set_no": 999,
        "meta_rev_at_epoch": 395,
        "meta_bstar": 0.00035014955,
        "meta_mean_motion_dot": 6.886e-05,
        "meta_mean_motion_ddot": 0,
        "tle_line1": "1 66721U 25276BH  25358.81110404  .00006886  00000+0  35015-3 0  9990",
        "tle_line2": "2 66721  97.4378  70.3425 0002479 273.0043  87.0907 15.17159719  3958"
      },
      "geometry": {
        "type": "Point",
        "coordinates": [
          -83.76549591045284,
          73.0727444549275
        ]
      }
    },
    {
      "type": "Feature",
      "properties": {
        "norad_id": 66722,
        "name": "FLOCK 4H-19",
        "group": "last-30-days",
        "lat": -26.847958504751798,
        "lon": -112.93257057160004,
        "alt_km": 515.9055281815808,
        "timestamp": "2025-12-25T07:00:32.763382+00:00",
        "meta_object_name": "FLOCK 4H-19",
        "meta_object_id": "2025-276BJ",
        "meta_epoch": "2025-12-24T22:11:30.395904",
        "meta_mean_motion": 15.18289306,
        "meta_eccentricity": 0.00025652,
        "meta_inclination": 97.4384,
        "meta_ra_of_asc_node": 70.4981,
        "meta_arg_of_pericenter": 148.2294,
        "meta_mean_anomaly": 211.9095,
        "meta_ephemeris_type": 0,
        "meta_classification_type": "U",
        "meta_norad_cat_id": 66722,
        "meta_element_set_no": 999,
        "meta_rev_at_epoch": 326,
        "meta_bstar": 0.00078553069,
        "meta_mean_motion_dot": 0.00016061,
        "meta_mean_motion_ddot": 0,
        "tle_line1": "1 66722U 25276BJ  25358.92465736  .00016061  00000+0  78553-3 0  9994",
        "tle_line2": "2 66722  97.4384  70.4981 0002565 148.2294 211.9095 15.18289306  3268"
      },
      "geometry": {
        "type": "Point",
        "coordinates": [
          -112.93257057160004,
          -26.847958504751798
        ]
      }
    },
    {
      "type": "Feature",
      "properties": {
        "norad_id": 66723,
        "name": "FLOCK 4H-20",
        "group": "last-30-days",
        "lat": -30.69644516654356,
        "lon": -113.5748939115886,
        "alt_km": 515.5539025994085,
        "timestamp": "2025-12-25T07:00:32.763392+00:00",
        "meta_object_name": "FLOCK 4H-20",
        "meta_object_id": "2025-276BK",
        "meta_epoch": "2025-12-24T22:10:29.622144",
        "meta_mean_motion": 15.18334946,
        "meta_eccentricity": 0.00030255,
        "meta_inclination": 97.4419,
        "meta_ra_of_asc_node": 70.5136,
        "meta_arg_of_pericenter": 163.2501,
        "meta_mean_anomaly": 196.8834,
        "meta_ephemeris_type": 0,
        "meta_classification_type": "U",
        "meta_norad_cat_id": 66723,
        "meta_element_set_no": 999,
        "meta_rev_at_epoch": 322,
        "meta_bstar": 0.00049449163,
        "meta_mean_motion_dot": 0.00010091,
        "meta_mean_motion_ddot": 0,
        "tle_line1": "1 66723U 25276BK  25358.92395396  .00010091  00000+0  49449-3 0  9998",
        "tle_line2": "2 66723  97.4419  70.5136 0003025 163.2501 196.8834 15.18334946  3220"
      },
      "geometry": {
        "type": "Point",
        "coordinates": [
          -113.5748939115886,
          -30.69644516654356
        ]
      }
    },
    {
      "type": "Feature",
      "properties": {
        "norad_id": 66724,
        "name": "FLOCK 4H-21",
        "group": "last-30-days",
        "lat": -34.07289582466167,
        "lon": -114.20723549617544,
        "alt_km": 516.0070697887522,
        "timestamp": "2025-12-25T07:00:32.763402+00:00",
        "meta_object_name": "FLOCK 4H-21",
        "meta_object_id": "2025-276BL",
        "meta_epoch": "2025-12-24T22:09:36.748800",
        "meta_mean_motion": 15.18387887,
        "meta_eccentricity": 0.000283,
        "meta_inclination": 97.4384,
        "meta_ra_of_asc_node": 70.4998,
        "meta_arg_of_pericenter": 154.82,
        "meta_mean_anomaly": 205.3173,
        "meta_ephemeris_type": 0,
        "meta_classification_type": "U",
        "meta_norad_cat_id": 66724,
        "meta_element_set_no": 999,
        "meta_rev_at_epoch": 322,
        "meta_bstar": 0.0006332692,
        "meta_mean_motion_dot": 0.00012967,
        "meta_mean_motion_ddot": 0,
        "tle_line1": "1 66724U 25276BL  25358.92334200  .00012967  00000+0  63327-3 0  9991",
        "tle_line2": "2 66724  97.4384  70.4998 0002830 154.8200 205.3173 15.18387887  3226"
      },
      "geometry": {
        "type": "Point",
        "coordinates": [
          -114.20723549617544,
          -34.07289582466167
        ]
      }
    }
  ]
}